0 ARIANE 42L R/B
1 25586U 98075B   13281.83750023  .00060991  00000-0  33413-2 0  2992
2 25586 007.4327 094.8436 6036193 090.1374 278.3696 04.04361028173120
0 ARIANE 42L R/B
1 25586U 98075B   13282.36825796  .00066674  00000-0  36603-2 0  3002
2 25586 007.4330 094.3813 6035648 091.0458 331.0545 04.04436392173144
0 ARIANE 42L R/B
1 25586U 98075B   13283.35498356  .00067715  00000-0  37244-2 0  3010
2 25586 007.4337 093.5233 6034736 092.7307 327.9412 04.04569260173188
0 ARIANE 42L R/B
1 25586U 98075B   13283.60577767  .00082905  00000-0  41671-2 0  3020
2 25586 007.4331 093.3049 6036638 093.1573 333.2232 04.04602791173208
0 ARIANE 42L R/B
1 25586U 98075B   13285.86161597  .00065628  00000-0  36148-2 0  3037
2 25586 007.4357 091.3410 6032692 097.0127 020.1541 04.04879894173283
0 ARIANE 42L R/B
1 25586U 98075B   13286.84773009  .00066674  00000-0  36681-2 0  3048
2 25586 007.4364 090.4826 6031936 098.6975 017.7039 04.05000144173324
0 ARIANE 42L R/B
1 25586U 98075B   13287.83146152  .00076102  00000-0  41711-2 0  3059
2 25586 007.4372 089.6267 6031203 100.3790 012.2071 04.05123925173368
0 ARIANE 42L R/B
1 25586U 98075B   13288.82021427  .00073529  00000-0  40159-2 0  3062
2 25586 007.4380 088.7653 6030336 102.0703 014.5072 04.05267796173401
0 ARIANE 42L R/B
1 25586U 98075B   13289.54272230  .00072223  00000-0  39475-2 0  3072
2 25586 007.4386 088.1378 6029659 103.3045 348.7500 04.05366670173436
0 ARIANE 42L R/B
1 25586U 98075B   13290.51359961  .00064185  00000-0  33870-2 0  3091
2 25586 007.4514 087.2254 6029523 105.0538 325.7863 04.05501646173473
0 ARIANE 42L R/B
1 25586U 98075B   13290.73452147  .00072736  00000-0  39644-2 0  3080
2 25586 007.4396 087.1029 6028639 105.3408 288.3121 04.05528827173488
0 ARIANE 42L R/B
1 25586U 98075B   13291.51402824  .00069760  00000-0  38149-2 0  3097
2 25586 007.4406 086.4216 6027835 106.6790 346.4712 04.05636684173512
0 ARIANE 42L R/B
1 25586U 98075B   13292.49886229  .00067333  00000-0  36883-2 0  3109
2 25586 007.4417 085.5656 6026912 108.3636 344.8499 04.05768023173556
0 ARIANE 42L R/B
1 25586U 98075B   13293.48355950  .00066550  00000-0  36515-2 0  3114
2 25586 007.4426 084.7076 6026019 110.0513 343.4903 04.05894931173592
0 ARIANE 42L R/B
1 25586U 98075B   13294.61388329  .00067622  00000-0  37143-2 0  3126
2 25586 007.4439 083.7240 6025043 111.9813 195.4471 04.06036848173633
0 ARIANE 42L R/B
1 25586U 98075B   13295.77945407  .00065802  00000-0  36294-2 0  3135
2 25586 007.4451 082.7083 6023971 113.9802 099.5256 04.06183041173687
